[{"OBJECT_NAME":"STARLINK-33545","OBJECT_ID":"2024-220P","EPOCH":"2026-03-09T10:12:03.261600","MEAN_MOTION":15.27607917,"ECCENTRICITY":0.00031045,"INCLINATION":43.0013,"RA_OF_ASC_NODE":206.7886,"ARG_OF_PERICENTER":295.1029,"MEAN_ANOMALY":64.9501,"EPHEMERIS_TYPE":0,"CLASSIFICATION_TYPE":"U","NORAD_CAT_ID":62101,"ELEMENT_SET_NO":999,"REV_AT_EPOCH":7298,"BSTAR":0.0014409794,"MEAN_MOTION_DOT":0.00039641,"MEAN_MOTION_DDOT":0},{"OBJECT_NAME":"TEVEL2-9","OBJECT_ID":"2025-052AD","EPOCH":"2026-03-09T16:51:18.321696","MEAN_MOTION":15.28633834,"ECCENTRICITY":0.000799,"INCLINATION":97.4057,"RA_OF_ASC_NODE":324.3929,"ARG_OF_PERICENTER":124.2475,"MEAN_ANOMALY":235.9522,"EPHEMERIS_TYPE":0,"CLASSIFICATION_TYPE":"U","NORAD_CAT_ID":63237,"ELEMENT_SET_NO":999,"REV_AT_EPOCH":5481,"BSTAR":0.00067240159,"MEAN_MOTION_DOT":0.00018694,"MEAN_MOTION_DDOT":0}]
